{
  "norad_id": 66415,
  "name": "HULIANWANG DIGUI-99",
  "history": [
    {
      "epoch": "2026-03-28T19:55:45.810048Z",
      "apogee_km": 1149.7049211184521,
      "perigee_km": 1148.8520649430902,
      "latitude_deg": -3.942725529725957e-05,
      "longitude_deg": 98.5796849570948,
      "height_km": 1150.2101749280382,
      "semi_major_axis_km": 7527.41549303077,
      "eccentricity": 5.665e-05,
      "inclination_deg": 50.0037,
      "raan_deg": 223.7658,
      "arg_perigee_deg": 184.1211,
      "mean_anomaly_deg": 175.9656,
      "mean_motion_rev_day": 13.29333438
    },
    {
      "epoch": "2026-03-29T03:08:47.676768Z",
      "apogee_km": 1149.7019958291694,
      "perigee_km": 1148.8544088773851,
      "latitude_deg": -6.606998466653316e-06,
      "longitude_deg": -11.05306491081654,
      "height_km": 1150.2064695914667,
      "semi_major_axis_km": 7527.415202353277,
      "eccentricity": 5.63e-05,
      "inclination_deg": 50.0037,
      "raan_deg": 222.6872,
      "arg_perigee_deg": 185.4171,
      "mean_anomaly_deg": 174.6695,
      "mean_motion_rev_day": 13.29333515
    },
    {
      "epoch": "2026-03-30T02:36:08.757216Z",
      "apogee_km": 1149.7039671350603,
      "perigee_km": 1148.851863766632,
      "latitude_deg": 1.0627799127711387e-05,
      "longitude_deg": -7.359282921297342,
      "height_km": 1150.203851298631,
      "semi_major_axis_km": 7527.414915450846,
      "eccentricity": 5.66e-05,
      "inclination_deg": 50.0037,
      "raan_deg": 219.1821,
      "arg_perigee_deg": 190.0458,
      "mean_anomaly_deg": 170.0403,
      "mean_motion_rev_day": 13.29333591
    },
    {
      "epoch": "2026-03-30T04:24:24.224544Z",
      "apogee_km": 1149.7050396186078,
      "perigee_km": 1148.8506780321304,
      "latitude_deg": -1.3530309045166258e-05,
      "longitude_deg": -34.767550023018394,
      "height_km": 1150.2041296092166,
      "semi_major_axis_km": 7527.414858825369,
      "eccentricity": 5.675e-05,
      "inclination_deg": 50.0037,
      "raan_deg": 218.9124,
      "arg_perigee_deg": 190.6337,
      "mean_anomaly_deg": 169.4523,
      "mean_motion_rev_day": 13.29333606
    },
    {
      "epoch": "2026-03-30T15:13:57.026784Z",
      "apogee_km": 1149.707406171261,
      "perigee_km": 1148.8477754249907,
      "latitude_deg": 4.1864452466612616e-05,
      "longitude_deg": 160.7835218165187,
      "height_km": 1150.2028359356432,
      "semi_major_axis_km": 7527.414590798126,
      "eccentricity": 5.71e-05,
      "inclination_deg": 50.0037,
      "raan_deg": 217.2947,
      "arg_perigee_deg": 192.9999,
      "mean_anomaly_deg": 167.0859,
      "mean_motion_rev_day": 13.29333677
    },
    {
      "epoch": "2026-03-30T18:50:27.962304Z",
      "apogee_km": 1149.7069995985576,
      "perigee_km": 1148.8481215971933,
      "latitude_deg": -2.4516257666853446e-06,
      "longitude_deg": 105.96708734220522,
      "height_km": 1150.2017750535308,
      "semi_major_axis_km": 7527.414560597876,
      "eccentricity": 5.705e-05,
      "inclination_deg": 50.0037,
      "raan_deg": 216.7554,
      "arg_perigee_deg": 193.3937,
      "mean_anomaly_deg": 166.692,
      "mean_motion_rev_day": 13.29333685
    },
    {
      "epoch": "2026-03-31T18:17:49.034112Z",
      "apogee_km": 1149.7123582405238,
      "perigee_km": 1148.842189150484,
      "latitude_deg": 4.702055527286936e-05,
      "longitude_deg": 109.66083309130768,
      "height_km": 1150.1989883574975,
      "semi_major_axis_km": 7527.414273695504,
      "eccentricity": 5.78e-05,
      "inclination_deg": 50.0037,
      "raan_deg": 213.2502,
      "arg_perigee_deg": 197.3804,
      "mean_anomaly_deg": 162.7049,
      "mean_motion_rev_day": 13.29333761
    },
    {
      "epoch": "2026-04-01T19:33:25.560288Z",
      "apogee_km": 1149.7171517488187,
      "perigee_km": 1148.836444334449,
      "latitude_deg": 3.301181295334992e-05,
      "longitude_deg": 85.94633299583853,
      "height_km": 1150.190327561475,
      "semi_major_axis_km": 7527.4137980416335,
      "eccentricity": 5.85e-05,
      "inclination_deg": 50.0037,
      "raan_deg": 209.4753,
      "arg_perigee_deg": 202.4517,
      "mean_anomaly_deg": 157.633,
      "mean_motion_rev_day": 13.29333887
    },
    {
      "epoch": "2026-04-02T19:00:46.611360Z",
      "apogee_km": 1149.7265629434814,
      "perigee_km": 1148.8258326802306,
      "latitude_deg": 6.548866819585754e-07,
      "longitude_deg": 89.63999653996333,
      "height_km": 1150.1839061175688,
      "semi_major_axis_km": 7527.413197811856,
      "eccentricity": 5.983e-05,
      "inclination_deg": 50.0037,
      "raan_deg": 205.97,
      "arg_perigee_deg": 207.051,
      "mean_anomaly_deg": 153.0331,
      "mean_motion_rev_day": 13.29334046
    },
    {
      "epoch": "2026-04-03T16:39:52.195104Z",
      "apogee_km": 1149.7326663124559,
      "perigee_km": 1148.8188384043206,
      "latitude_deg": 1.0068973683149937e-05,
      "longitude_deg": 120.74194128602197,
      "height_km": 1150.1761022709384,
      "semi_major_axis_km": 7527.412752358388,
      "eccentricity": 6.07e-05,
      "inclination_deg": 50.0037,
      "raan_deg": 202.7344,
      "arg_perigee_deg": 210.4979,
      "mean_anomaly_deg": 149.5858,
      "mean_motion_rev_day": 13.29334164
    },
    {
      "epoch": "2026-04-04T19:43:44.173056Z",
      "apogee_km": 1149.7401144447076,
      "perigee_km": 1148.811231720848,
      "latitude_deg": 3.431200970160139e-05,
      "longitude_deg": 69.61948893125212,
      "height_km": 1150.1625529249632,
      "semi_major_axis_km": 7527.4126730827775,
      "eccentricity": 6.17e-05,
      "inclination_deg": 50.0038,
      "raan_deg": 198.69,
      "arg_perigee_deg": 215.0597,
      "mean_anomaly_deg": 145.0235,
      "mean_motion_rev_day": 13.29334185
    },
    {
      "epoch": "2026-04-05T13:46:18.820416Z",
      "apogee_km": 1149.7411746773978,
      "perigee_km": 1148.8094315825165,
      "latitude_deg": -1.6236319157305403e-05,
      "longitude_deg": 155.53778360248603,
      "height_km": 1150.14765839617,
      "semi_major_axis_km": 7527.412303129957,
      "eccentricity": 6.189e-05,
      "inclination_deg": 50.0038,
      "raan_deg": 195.9937,
      "arg_perigee_deg": 218.2996,
      "mean_anomaly_deg": 141.7832,
      "mean_motion_rev_day": 13.29334283
    },
    {
      "epoch": "2026-04-05T19:11:05.212896Z",
      "apogee_km": 1149.740417929791,
      "perigee_km": 1148.8100297789242,
      "latitude_deg": -2.106667920568459e-05,
      "longitude_deg": 73.31327780474652,
      "height_km": 1150.1417717473955,
      "semi_major_axis_km": 7527.412223854358,
      "eccentricity": 6.18e-05,
      "inclination_deg": 50.0038,
      "raan_deg": 195.1848,
      "arg_perigee_deg": 219.3381,
      "mean_anomaly_deg": 140.7446,
      "mean_motion_rev_day": 13.29334304
    },
    {
      "epoch": "2026-04-06T06:00:37.996992Z",
      "apogee_km": 1149.7424269861212,
      "perigee_km": 1148.8075224188633,
      "latitude_deg": -3.0378469014451428e-05,
      "longitude_deg": -91.13563006247755,
      "height_km": 1150.1340707604365,
      "semi_major_axis_km": 7527.4119747024915,
      "eccentricity": 6.21e-05,
      "inclination_deg": 50.0038,
      "raan_deg": 193.5671,
      "arg_perigee_deg": 221.0881,
      "mean_anomaly_deg": 138.9944,
      "mean_motion_rev_day": 13.2933437
    }
  ]
}